NORAD_CAT_ID,OBJECT_NAME,OBJECT_TYPE,EPOCH,MEAN_MOTION,ECCENTRICITY,INCLINATION,RA_OF_ASC_NODE,ARG_OF_PERICENTER,MEAN_ANOMALY,BSTAR,MEAN_MOTION_DOT,MEAN_MOTION_DDOT,TLE_LINE0,TLE_LINE1,TLE_LINE2,SEMIMAJOR_AXIS,PERIOD,APOGEE,PERIGEE,DECAYED
55963.0,STARLINK-5924,PAYLOAD,2024-06-20 22:39:12,14.98330856,0.0002864,70.0,44.6684,270.2123,89.8708,2.0166e-05,1.48e-06,0.0,0 STARLINK-5924,1 55963U 23037BB  24172.94389064  .00000148  00000-0  20166-4 0  9994,2 55963  70.0000  44.6684 0002864 270.2123  89.8708 14.98330856 70594,6950.19,96.107,574.046,570.065,0.0
55963.0,STARLINK-5924,PAYLOAD,2024-06-21 01:51:28,14.98332615,0.0002889,69.9999,44.332,270.4772,89.6056,3.5925e-05,3.36e-06,0.0,0 STARLINK-5924,1 55963U 23037BB  24173.07740883  .00000336  00000-0  35925-4 0  9997,2 55963  69.9999  44.3320 0002889 270.4772  89.6056 14.98332615 70950,6950.185,96.107,574.058,570.042,0.0
55963.0,STARLINK-5924,PAYLOAD,2024-06-21 14:40:32,14.98331359,0.0002783,70.0001,42.9856,272.1352,87.9488,-4.5628e-06,-1.47e-06,0.0,0 STARLINK-5924,1 55963U 23037BB  24173.61149093 -.00000147  00000-0 -45628-5 0  9997,2 55963  70.0001  42.9856 0002783 272.1352  87.9488 14.98331359 70696,6950.189,96.107,573.988,570.119,0.0
55963.0,STARLINK-5924,PAYLOAD,2024-06-21 22:41:13,14.98330415,0.00027,70.0003,42.1447,266.9318,93.1532,1.0703e-05,3.5e-07,0.0,0 STARLINK-5924,1 55963U 23037BB  24173.94529041  .00000035  00000-0  10703-4 0  9997,2 55963  70.0003  42.1447 0002700 266.9318  93.1532 14.98330415 70745,6950.192,96.107,573.933,570.18,0.0
55963.0,STARLINK-5924,PAYLOAD,2024-06-22 00:17:21,14.9833096,0.0002692,70.0004,41.9764,266.9211,93.164,1.6806e-05,1.08e-06,0.0,0 STARLINK-5924,1 55963U 23037BB  24174.01204985  .00000108  00000-0  16806-4 0  9994,2 55963  70.0004  41.9764 0002692 266.9211  93.1640 14.98330960 70753,6950.19,96.107,573.926,570.184,0.0
55963.0,STARLINK-5924,PAYLOAD,2024-06-22 21:07:05,14.98331763,0.0002822,70.0001,39.7878,267.1017,92.9819,2.5023e-05,2.06e-06,0.0,0 STARLINK-5924,1 55963U 23037BB  24174.87992775  .00000206  00000-0  25023-4 0  9999,2 55963  70.0001  39.7878 0002822 267.1017  92.9819 14.98331763 71223,6950.187,96.107,574.014,570.091,0.0
55963.0,STARLINK-5924,PAYLOAD,2024-06-22 22:43:13,14.98332307,0.0002815,70.0,39.6195,267.0135,93.0702,3.066e-05,2.73e-06,0.0,0 STARLINK-5924,1 55963U 23037BB  24174.94668715  .00000273  00000-0  30660-4 0  9998,2 55963  70.0000  39.6195 0002815 267.0135  93.0702 14.98332307 70895,6950.186,96.107,574.007,570.094,0.0
55963.0,STARLINK-5924,PAYLOAD,2024-06-23 21:09:06,14.98330721,0.0002801,70.0003,37.2628,263.2834,96.8007,2.5914e-05,2.16e-06,0.0,0 STARLINK-5924,1 55963U 23037BB  24175.88132678  .00000216  00000-0  25914-4 0  9999,2 55963  70.0003  37.2628 0002801 263.2834  96.8007 14.98330721 71373,6950.191,96.107,574.002,570.109,0.0
55963.0,STARLINK-5924,PAYLOAD,2024-06-23 22:45:14,14.983307,0.0002808,70.0002,37.0945,263.9399,96.144,2.4661e-05,2.01e-06,0.0,0 STARLINK-5924,1 55963U 23037BB  24175.94808682  .00000201  00000-0  24661-4 0  9993,2 55963  70.0002  37.0945 0002808 263.9399  96.1440 14.98330700 71047,6950.191,96.107,574.007,570.104,0.0
55963.0,STARLINK-5924,PAYLOAD,2024-06-24 14:46:35,14.98331498,0.0002902,69.9999,35.4107,268.75,91.3327,6.4535e-06,-1.6e-07,0.0,0 STARLINK-5924,1 55963U 23037BB  24176.61568621 -.00000016  00000-0  64535-5 0  9994,2 55963  69.9999  35.4107 0002902 268.7500  91.3327 14.98331498 71140,6950.188,96.107,574.07,570.036,0.0
55963.0,STARLINK-5924,PAYLOAD,2024-06-24 21:11:07,14.98330726,0.0002933,70.0,34.7375,268.0526,92.0297,-6.536e-06,-1.71e-06,0.0,0 STARLINK-5924,1 55963U 23037BB  24176.88272669 -.00000171  00000-0 -65360-5 0  9997,2 55963  70.0000  34.7375 0002933 268.0526  92.0297 14.98330726 71529,6950.191,96.107,574.094,570.017,0.0
55963.0,STARLINK-5924,PAYLOAD,2024-06-25 14:48:36,14.98332608,0.0002999,69.9999,32.8861,269.4179,90.6636,3.0125e-05,2.66e-06,0.0,0 STARLINK-5924,1 55963U 23037BB  24177.61708409  .00000266  00000-0  30125-4 0  9998,2 55963  69.9999  32.8861 0002999 269.4179  90.6636 14.98332608 71299,6950.185,96.107,574.134,569.965,0.0
55963.0,STARLINK-5924,PAYLOAD,2024-06-25 22:49:16,14.98335105,0.0002972,70.0001,32.0442,269.6812,90.4007,5.9611e-05,6.18e-06,0.0,0 STARLINK-5924,1 55963U 23037BB  24177.95088101  .00000618  00000-0  59611-4 0  9997,2 55963  70.0001  32.0442 0002972 269.6812  90.4007 14.98335105 71341,6950.177,96.107,574.108,569.977,0.0
55963.0,STARLINK-5924,PAYLOAD,2024-06-26 00:25:24,14.98335778,0.0002971,70.0001,31.876,269.5393,90.5426,6.5973e-05,6.94e-06,0.0,0 STARLINK-5924,1 55963U 23037BB  24178.01764021  .00000694  00000-0  65973-4 0  9999,2 55963  70.0001  31.8760 0002971 269.5393  90.5426 14.98335778 71693,6950.175,96.107,574.105,569.975,0.0
55963.0,STARLINK-5924,PAYLOAD,2024-06-26 22:51:17,14.98328303,0.0002808,70.0006,29.5206,264.2533,95.8306,2.1849e-05,1.68e-06,0.0,0 STARLINK-5924,1 55963U 23037BB  24178.95228537  .00000168  00000-0  21849-4 0  9999,2 55963  70.0006  29.5206 0002808 264.2533  95.8306 14.98328303 71493,6950.198,96.107,574.015,570.112,0.0
55963.0,STARLINK-5924,PAYLOAD,2024-06-27 00:27:25,14.98328384,0.0002816,70.0006,29.3523,264.8561,95.2277,2.1075e-05,1.58e-06,0.0,0 STARLINK-5924,1 55963U 23037BB  24179.01904538  .00000158  00000-0  21075-4 0  9999,2 55963  70.0006  29.3523 0002816 264.8561  95.2277 14.98328384 71848,6950.198,96.107,574.02,570.106,0.0
55963.0,STARLINK-5924,PAYLOAD,2024-06-27 22:53:18,14.98330676,0.0002853,70.0003,26.9952,265.8633,94.22,-2.451e-05,-3.85e-06,0.0,0 STARLINK-5924,1 55963U 23037BB  24179.95368591 -.00000385  00000-0 -24510-4 0  9996,2 55963  70.0003  26.9952 0002853 265.8633  94.2200 14.98330676 71646,6950.191,96.107,574.039,570.073,0.0
55963.0,STARLINK-5924,PAYLOAD,2024-06-28 06:53:58,14.98331565,0.0002844,70.0004,26.1534,266.4919,93.5915,1.0581e-05,3.3e-07,0.0,0 STARLINK-5924,1 55963U 23037BB  24180.28748458  .00000033  00000-0  10581-4 0  9999,2 55963  70.0004  26.1534 0002844 266.4919  93.5915 14.98331565 72036,6950.188,96.107,574.03,570.076,0.0
55963.0,STARLINK-5924,PAYLOAD,2024-06-28 14:54:38,14.98333013,0.0002935,70.0,25.3117,265.6042,94.4782,0.00010008,1.101e-05,0.0,0 STARLINK-5924,1 55963U 23037BB  24180.62128053  .00001101  00000-0  10008-3 0  9990,2 55963  70.0000  25.3117 0002935 265.6042  94.4782 14.98333013 71748,6950.184,96.107,574.088,570.009,0.0
55963.0,STARLINK-5924,PAYLOAD,2024-06-28 21:19:10,14.98339175,0.0003142,69.9992,24.6356,268.5909,91.489,6.7279e-05,7.1e-06,0.0,0 STARLINK-5924,1 55963U 23037BB  24180.88831710  .00000710  00000-0  67279-4 0  9997,2 55963  69.9992  24.6356 0003142 268.5909  91.4890 14.98339175 71783,6950.165,96.106,574.213,569.846,0.0
55963.0,STARLINK-5924,PAYLOAD,2024-06-28 22:55:18,14.98339026,0.000291,70.0002,24.4702,259.8637,100.2194,0.00016002,1.817e-05,0.0,0 STARLINK-5924,1 55963U 23037BB  24180.95507377  .00001817  00000-0  16002-3 0  9990,2 55963  70.0002  24.4702 0002910 259.8637 100.2194 14.98339026 72135,6950.165,96.106,574.052,570.007,0.0
55963.0,STARLINK-5924,PAYLOAD,2024-06-29 13:20:32,14.98313935,0.0003211,69.9995,22.9537,269.9684,90.1107,-7.5573e-05,-9.94e-06,0.0,0 STARLINK-5924,1 55963U 23037BB  24181.55593624 -.00000994  00000-0 -75573-4 0  9993,2 55963  69.9995  22.9537 0003211 269.9684  90.1107 14.98313935 72223,6950.243,96.108,574.339,569.876,0.0
55963.0,STARLINK-5924,PAYLOAD,2024-06-29 14:56:40,14.98314452,0.000329,69.9995,22.7843,270.3027,89.7755,-4.5353e-05,-6.34e-06,0.0,0 STARLINK-5924,1 55963U 23037BB  24181.62269545 -.00000634  00000-0 -45353-4 0  9997,2 55963  69.9995  22.7843 0003290 270.3027  89.7755 14.98314452 71895,6950.241,96.108,574.393,569.819,0.0
55963.0,STARLINK-5924,PAYLOAD,2024-06-29 22:57:21,14.98321721,0.0003267,69.9994,21.9444,269.6516,90.4269,-5.657e-05,-7.68e-06,0.0,0 STARLINK-5924,1 55963U 23037BB  24181.95649353 -.00000768  00000-0 -56570-4 0  9993,2 55963  69.9994  21.9444 0003267 269.6516  90.4269 14.98321721 71942,6950.218,96.108,574.354,569.813,0.0
55963.0,STARLINK-5924,PAYLOAD,2024-06-30 06:58:01,14.98327757,0.000324,69.9995,21.1022,270.0737,90.005,-2.2863e-06,-1.2e-06,0.0,0 STARLINK-5924,1 55963U 23037BB  24182.29028950 -.00000120  00000-0 -22863-5 0  9996,2 55963  69.9995  21.1022 0003240 270.0737  90.0050 14.98327757 72332,6950.2,96.107,574.317,569.813,0.0
55963.0,STARLINK-5924,PAYLOAD,2024-06-30 14:58:40,14.98333433,0.0003248,69.9995,20.2604,270.3554,89.7232,2.9174e-05,2.55e-06,0.0,0 STARLINK-5924,1 55963U 23037BB  24182.62408524  .00000255  00000-0  29174-4 0  9990,2 55963  69.9995  20.2604 0003248 270.3554  89.7232 14.98333433 72049,6950.182,96.107,574.305,569.79,0.0
55963.0,STARLINK-5924,PAYLOAD,2024-06-30 21:23:12,14.98341931,0.0003294,69.9994,19.587,269.0248,91.0533,4.0697e-05,3.93e-06,0.0,0 STARLINK-5924,1 55963U 23037BB  24182.89111940  .00000393  00000-0  40697-4 0  9998,2 55963  69.9994  19.5870 0003294 269.0248  91.0533 14.98341931 72424,6950.156,96.106,574.31,569.732,0.0
55963.0,STARLINK-5924,PAYLOAD,2024-07-01 13:24:33,14.98321989,0.0003385,69.9996,17.9032,270.0778,89.9993,0.0003095,3.601e-05,0.0,0 STARLINK-5924,1 55963U 23037BB  24183.55872571  .00003601  00000-0  30950-3 0  9991,2 55963  69.9996  17.9032 0003385 270.0778  89.9993 14.98321989 72527,6950.218,96.108,574.435,569.73,0.0
55963.0,STARLINK-5924,PAYLOAD,2024-07-01 15:00:42,14.98320149,0.000339,69.9995,17.735,269.892,90.1851,0.00033805,3.942e-05,0.0,0 STARLINK-5924,1 55963U 23037BB  24183.62548719  .00003942  00000-0  33805-3 0  9993,2 55963  69.9995  17.7350 0003390 269.8920  90.1851 14.98320149 72195,6950.223,96.108,574.444,569.732,0.0
55963.0,STARLINK-5924,PAYLOAD,2024-07-01 21:25:14,14.98331538,0.0003415,69.9996,17.0621,270.997,89.0797,0.00024528,2.835e-05,0.0,0 STARLINK-5924,1 55963U 23037BB  24183.89252359  .00002835  00000-0  24528-3 0  9996,2 55963  69.9996  17.0621 0003415 270.9970  89.0797 14.98331538 72231,6950.188,96.107,574.427,569.68,0.0
